start=new Date('2021-11-10T00:00:00.000Z').valueOf();
sats=[{"SEMIMAJOR_AXIS":"6925.304","ECCENTRICITY":"0.00014920","NORAD_CAT_ID":"47573","MEAN_MOTION_DOT":"0.00007055","REV_AT_EPOCH":"4262","INCLINATION":"53.0525","SITE":"AFETR","ELEMENT_SET_NO":"999","COUNTRY_CODE":"US","OBJECT_ID":"2021-009AB","CLASSIFICATION_TYPE":"U","RA_OF_ASC_NODE":"269.4005","LAUNCH_DATE":"2021-02-04","TLE_LINE1":"1 47573U 21009AB  21313.59872644  .00007055  00000-0  49184-3 0  9999","CENTER_NAME":"EARTH","EPOCH":"2021-11-09T14:22:09.964416","BSTAR":"0.00049184000000","EPHEMERIS_TYPE":"0","PERIAPSIS":"546.136","MEAN_ELEMENT_THEORY":"SGP4","RCS_SIZE":"LARGE","OBJECT_NAME":"STARLINK-1975","TIME_SYSTEM":"UTC","GP_ID":"189361539","ARG_OF_PERICENTER":"68.6356","DECAY_DATE":null,"APOAPSIS":"548.203","MEAN_MOTION_DDOT":"0.0000000000000","TLE_LINE2":"2 47573  53.0525 269.4005 0001492  68.6356 291.4793 15.06414400 42628","OBJECT_TYPE":"PAYLOAD","PERIOD":"95.591","MEAN_ANOMALY":"291.4793","MEAN_MOTION":"15.06414400","FILE":"3210180","REF_FRAME":"TEME"},{"DECAY_DATE":null,"ARG_OF_PERICENTER":"63.7660","MEAN_MOTION_DDOT":"0.0000000000000","APOAPSIS":"548.227","OBJECT_TYPE":"PAYLOAD","PERIOD":"95.593","TLE_LINE2":"2 47574  53.0558 299.0347 0001418  63.7660 296.3475 15.06389625 42211","FILE":"3210180","REF_FRAME":"TEME","MEAN_MOTION":"15.06389625","MEAN_ANOMALY":"296.3475","PERIAPSIS":"546.263","MEAN_ELEMENT_THEORY":"SGP4","RCS_SIZE":"LARGE","TIME_SYSTEM":"UTC","OBJECT_NAME":"STARLINK-1976","GP_ID":"189361790","ELEMENT_SET_NO":"999","CLASSIFICATION_TYPE":"U","RA_OF_ASC_NODE":"299.0347","COUNTRY_CODE":"US","OBJECT_ID":"2021-009AC","CENTER_NAME":"EARTH","EPOCH":"2021-11-09T16:20:15.253440","LAUNCH_DATE":"2021-02-04","TLE_LINE1":"1 47574U 21009AC  21313.68073210  .00000411  00000-0  46524-4 0  9997","EPHEMERIS_TYPE":"0","BSTAR":"0.00004652400000","NORAD_CAT_ID":"47574","ECCENTRICITY":"0.00014180","SEMIMAJOR_AXIS":"6925.380","REV_AT_EPOCH":"4221","INCLINATION":"53.0558","MEAN_MOTION_DOT":"0.00000411","SITE":"AFETR"},{"ELEMENT_SET_NO":"999","COUNTRY_CODE":"US","OBJECT_ID":"2021-009AD","CLASSIFICATION_TYPE":"U","RA_OF_ASC_NODE":"299.0865","TLE_LINE1":"1 47575U 21009AD  21313.66967129  .00005376  00000-0  37951-3 0  9995","LAUNCH_DATE":"2021-02-04","CENTER_NAME":"EARTH","EPOCH":"2021-11-09T16:04:19.599456","BSTAR":"0.00037951000000","EPHEMERIS_TYPE":"0","SEMIMAJOR_AXIS":"6925.345","NORAD_CAT_ID":"47575","ECCENTRICITY":"0.00013320","MEAN_MOTION_DOT":"0.00005376","INCLINATION":"53.0541","REV_AT_EPOCH":"4221","SITE":"AFETR","ARG_OF_PERICENTER":"65.7349","DECAY_DATE":null,"MEAN_MOTION_DDOT":"0.0000000000000","APOAPSIS":"548.132","TLE_LINE2":"2 47575  53.0541 299.0865 0001332  65.7349 294.3779 15.06401147 42219","OBJECT_TYPE":"PAYLOAD","PERIOD":"95.592","MEAN_MOTION":"15.06401147","MEAN_ANOMALY":"294.3779","FILE":"3210180","REF_FRAME":"TEME","MEAN_ELEMENT_THEORY":"SGP4","PERIAPSIS":"546.288","RCS_SIZE":"LARGE","OBJECT_NAME":"STARLINK-1977","TIME_SYSTEM":"UTC","GP_ID":"189360538"},{"MEAN_MOTION_DOT":"0.00007782","REV_AT_EPOCH":"4276","INCLINATION":"53.0517","SITE":"AFETR","SEMIMAJOR_AXIS":"6925.311","NORAD_CAT_ID":"47576","ECCENTRICITY":"0.00013950","LAUNCH_DATE":"2021-02-04","TLE_LINE1":"1 47576U 21009AE  21313.57016199  .00007782  00000-0  54058-3 0  9998","CENTER_NAME":"EARTH","EPOCH":"2021-11-09T13:41:01.995936","BSTAR":"0.00054058000000","EPHEMERIS_TYPE":"0","ELEMENT_SET_NO":"999","COUNTRY_CODE":"US","OBJECT_ID":"2021-009AE","CLASSIFICATION_TYPE":"U","RA_OF_ASC_NODE":"259.5471","GP_ID":"189338540","PERIAPSIS":"546.210","MEAN_ELEMENT_THEORY":"SGP4","RCS_SIZE":"LARGE","OBJECT_NAME":"STARLINK-1978","TIME_SYSTEM":"UTC","TLE_LINE2":"2 47576  53.0517 259.5471 0001395  74.5115 285.6028 15.06412362 42766","OBJECT_TYPE":"PAYLOAD","PERIOD":"95.591","MEAN_MOTION":"15.06412362","MEAN_ANOMALY":"285.6028","FILE":"3210161","REF_FRAME":"TEME","ARG_OF_PERICENTER":"74.5115","DECAY_DATE":null,"APOAPSIS":"548.142","MEAN_MOTION_DDOT":"0.0000000000000"},{"EPOCH":"2021-11-09T06:42:21.598560","CENTER_NAME":"EARTH","LAUNCH_DATE":"2021-02-04","TLE_LINE1":"1 47577U 21009AF  21313.27941665  .00001056  00000-0  89784-4 0  9994","EPHEMERIS_TYPE":"0","BSTAR":"0.00008978400000","ELEMENT_SET_NO":"999","RA_OF_ASC_NODE":"275.8519","CLASSIFICATION_TYPE":"U","OBJECT_ID":"2021-009AF","COUNTRY_CODE":"US","INCLINATION":"53.0552","REV_AT_EPOCH":"4251","MEAN_MOTION_DOT":"0.00001056","SITE":"AFETR","NORAD_CAT_ID":"47577","ECCENTRICITY":"0.00015710","SEMIMAJOR_AXIS":"6925.363","PERIOD":"95.592","OBJECT_TYPE":"PAYLOAD","TLE_LINE2":"2 47577  53.0552 275.8519 0001571  69.3235 290.7922 15.06395281 42514","REF_FRAME":"TEME","FILE":"3210161","MEAN_MOTION":"15.06395281","MEAN_ANOMALY":"290.7922","DECAY_DATE":null,"ARG_OF_PERICENTER":"69.3235","MEAN_MOTION_DDOT":"0.0000000000000","APOAPSIS":"548.316","GP_ID":"189338791","RCS_SIZE":"LARGE","PERIAPSIS":"546.140","MEAN_ELEMENT_THEORY":"SGP4","TIME_SYSTEM":"UTC","OBJECT_NAME":"STARLINK-1979"},{"APOAPSIS":"548.224","MEAN_MOTION_DDOT":"0.0000000000000","DECAY_DATE":null,"ARG_OF_PERICENTER":"69.8346","FILE":"3210180","REF_FRAME":"TEME","MEAN_ANOMALY":"290.2804","MEAN_MOTION":"15.06408399","OBJECT_TYPE":"PAYLOAD","PERIOD":"95.592","TLE_LINE2":"2 47578  53.0544 279.3740 0001496  69.8346 290.2804 15.06408399 42480","TIME_SYSTEM":"UTC","OBJECT_NAME":"STARLINK-1980","PERIAPSIS":"546.152","MEAN_ELEMENT_THEORY":"SGP4","RCS_SIZE":"LARGE","GP_ID":"189362291","CLASSIFICATION_TYPE":"U","RA_OF_ASC_NODE":"279.3740","COUNTRY_CODE":"US","OBJECT_ID":"2021-009AG","ELEMENT_SET_NO":"999","EPHEMERIS_TYPE":"0","BSTAR":"0.00036625000000","CENTER_NAME":"EARTH","EPOCH":"2021-11-09T14:31:26.502240","TLE_LINE1":"1 47578U 21009AG  21313.60516785  .00005179  00000-0  36625-3 0  9998","LAUNCH_DATE":"2021-02-04","NORAD_CAT_ID":"47578","ECCENTRICITY":"0.00014960","SEMIMAJOR_AXIS":"6925.323","SITE":"AFETR","REV_AT_EPOCH":"4248","INCLINATION":"53.0544","MEAN_MOTION_DOT":"0.00005179"},{"SEMIMAJOR_AXIS":"6925.343","NORAD_CAT_ID":"47579","ECCENTRICITY":"0.00015140","SITE":"AFETR","MEAN_MOTION_DOT":"0.00006618","INCLINATION":"53.0546","REV_AT_EPOCH":"4257","OBJECT_ID":"2021-009AH","COUNTRY_CODE":"US","RA_OF_ASC_NODE":"270.9451","CLASSIFICATION_TYPE":"U","ELEMENT_SET_NO":"999","EPHEMERIS_TYPE":"0","BSTAR":"0.00046271000000","LAUNCH_DATE":"2021-02-04","TLE_LINE1":"1 47579U 21009AH  21313.25593138  .00006618  00000-0  46271-3 0  9994","EPOCH":"2021-11-09T06:08:32.471232","CENTER_NAME":"EARTH","OBJECT_NAME":"STARLINK-1981","TIME_SYSTEM":"UTC","RCS_SIZE":"LARGE","PERIAPSIS":"546.160","MEAN_ELEMENT_THEORY":"SGP4","GP_ID":"189337789","APOAPSIS":"548.257","MEAN_MOTION_DDOT":"0.0000000000000","ARG_OF_PERICENTER":"68.8224","DECAY_DATE":null,"MEAN_MOTION":"15.06401739","MEAN_ANOMALY":"291.2926","REF_FRAME":"TEME","FILE":"3210161","TLE_LINE2":"2 47579  53.0546 270.9451 0001514  68.8224 291.2926 15.06401739 42571","PERIOD":"95.592","OBJECT_TYPE":"PAYLOAD"},{"RA_OF_ASC_NODE":"279.3523","CLASSIFICATION_TYPE":"U","OBJECT_ID":"2021-009AJ","COUNTRY_CODE":"US","ELEMENT_SET_NO":"999","EPHEMERIS_TYPE":"0","BSTAR":"0.00036194000000","EPOCH":"2021-11-09T14:36:44.005824","CENTER_NAME":"EARTH","TLE_LINE1":"1 47580U 21009AJ  21313.60884266  .00005116  00000-0  36194-3 0  9995","LAUNCH_DATE":"2021-02-04","NORAD_CAT_ID":"47580","ECCENTRICITY":"0.00015850","SEMIMAJOR_AXIS":"6925.302","SITE":"AFETR","REV_AT_EPOCH":"4248","INCLINATION":"53.0531","MEAN_MOTION_DOT":"0.00005116","MEAN_MOTION_DDOT":"0.0000000000000","APOAPSIS":"548.264","DECAY_DATE":null,"ARG_OF_PERICENTER":"69.1040","REF_FRAME":"TEME","FILE":"3210180","MEAN_ANOMALY":"291.0119","MEAN_MOTION":"15.06415251","PERIOD":"95.591","OBJECT_TYPE":"PAYLOAD","TLE_LINE2":"2 47580  53.0531 279.3523 0001585  69.1040 291.0119 15.06415251 42484","TIME_SYSTEM":"UTC","OBJECT_NAME":"STARLINK-1982","RCS_SIZE":"LARGE","MEAN_ELEMENT_THEORY":"SGP4","PERIAPSIS":"546.069","GP_ID":"189361289"},{"SITE":"AFETR","REV_AT_EPOCH":"4276","INCLINATION":"53.0562","MEAN_MOTION_DOT":"0.00001203","NORAD_CAT_ID":"47581","ECCENTRICITY":"0.00014510","SEMIMAJOR_AXIS":"6925.329","BSTAR":"0.00009964000000","EPHEMERIS_TYPE":"0","EPOCH":"2021-11-09T14:07:32.086848","CENTER_NAME":"EARTH","LAUNCH_DATE":"2021-02-04","TLE_LINE1":"1 47581U 21009AK  21313.58856582  .00001203  00000-0  99640-4 0  9992","RA_OF_ASC_NODE":"259.4492","CLASSIFICATION_TYPE":"U","OBJECT_ID":"2021-009AK","COUNTRY_CODE":"US","ELEMENT_SET_NO":"999","GP_ID":"189361540","TIME_SYSTEM":"UTC","OBJECT_NAME":"STARLINK-1984","RCS_SIZE":"LARGE","PERIAPSIS":"546.189","MEAN_ELEMENT_THEORY":"SGP4","REF_FRAME":"TEME","FILE":"3210180","MEAN_ANOMALY":"291.2254","MEAN_MOTION":"15.06406412","PERIOD":"95.592","OBJECT_TYPE":"PAYLOAD","TLE_LINE2":"2 47581  53.0562 259.4492 0001451  68.8890 291.2254 15.06406412 42766","MEAN_MOTION_DDOT":"0.0000000000000","APOAPSIS":"548.199","DECAY_DATE":null,"ARG_OF_PERICENTER":"68.8890"},{"ELEMENT_SET_NO":"999","OBJECT_ID":"2021-009AL","COUNTRY_CODE":"US","RA_OF_ASC_NODE":"278.3284","CLASSIFICATION_TYPE":"U","LAUNCH_DATE":"2021-02-04","TLE_LINE1":"1 47582U 21009AL  21313.84105741  .00001948  00000-0  14962-3 0  9995","EPOCH":"2021-11-09T20:11:07.360224","CENTER_NAME":"EARTH","BSTAR":"0.00014962000000","EPHEMERIS_TYPE":"0","SEMIMAJOR_AXIS":"6925.328","NORAD_CAT_ID":"47582","ECCENTRICITY":"0.00015990","MEAN_MOTION_DOT":"0.00001948","INCLINATION":"53.0554","REV_AT_EPOCH":"4252","SITE":"AFETR","ARG_OF_PERICENTER":"72.8433","DECAY_DATE":null,"MEAN_MOTION_DDOT":"0.0000000000000","APOAPSIS":"548.300","TLE_LINE2":"2 47582  53.0554 278.3284 0001599  72.8433 287.2731 15.06406813 42522","PERIOD":"95.592","OBJECT_TYPE":"PAYLOAD","MEAN_ANOMALY":"287.2731","MEAN_MOTION":"15.06406813","REF_FRAME":"TEME","FILE":"3210180","RCS_SIZE":"LARGE","PERIAPSIS":"546.085","MEAN_ELEMENT_THEORY":"SGP4","OBJECT_NAME":"STARLINK-1986","TIME_SYSTEM":"UTC","GP_ID":"189361791"}];
